{
    "satellites": [
        {
            "name": "starlink313",
            "title": "Starlink-313 (G11-12)",
            "tle": [
                "1 70617C 25240AD  25308.10256944 -.01751800  00000+0 -82356-2 0  3086",
                "2 70617  53.1515 290.7770 0001107  74.4222   1.9679 15.84212181    11"
            ],
            "stdMag": 5,
            "noradId": "70617",
            "tleUrl": "http://celestrak.org/NORAD/elements/supplemental/sup-gp.php?FILE=starlink&FORMAT=tle",
            "launchDate": "2025-10-25T14:20:50.000Z",
            "active": true,
            "batch": [
                {
                    "noradId": "70617",
                    "tle": [
                        "1 70617C 25240AD  25308.10256944 -.01751800  00000+0 -82356-2 0  3086",
                        "2 70617  53.1515 290.7770 0001107  74.4222   1.9679 15.84212181    11"
                    ]
                },
                {
                    "noradId": "70612",
                    "tle": [
                        "1 70612C 25240Y   25308.10256944 -.01725500  00000+0 -81176-2 0  3088",
                        "2 70612  53.1517 290.7899 0000950  95.6849 334.4710 15.84171113    14"
                    ]
                },
                {
                    "noradId": "70614",
                    "tle": [
                        "1 70614C 25240AA  25308.10048611 -.01733100  00000+0 -81494-2 0  3088",
                        "2 70614  53.1519 290.7961 0000792  97.4379 322.9386 15.84189401    10"
                    ]
                },
                {
                    "noradId": "70616",
                    "tle": [
                        "1 70616C 25240AC  25308.10395833 -.01717400  00000+0 -80837-2 0  3086",
                        "2 70616  53.1515 290.7870 0000859  88.4756 347.5566 15.84151551    18"
                    ]
                },
                {
                    "noradId": "70613",
                    "tle": [
                        "1 70613C 25240Z   25308.09979167 -.01710800  00000+0 -80552-2 0  3080",
                        "2 70613  53.1515 290.8117 0000779 100.3858 310.0593 15.84136967    17"
                    ]
                },
                {
                    "noradId": "70615",
                    "tle": [
                        "1 70615C 25240AB  25308.10187500 -.01741700  00000+0 -81876-2 0  3089",
                        "2 70615  53.1517 290.7846 0000807  93.0489 337.2278 15.84203872    10"
                    ]
                },
                {
                    "noradId": "70611",
                    "tle": [
                        "1 70611C 25240X   25308.09909722 -.01695000  00000+0 -79815-2 0  3082",
                        "2 70611  53.1515 290.8239 0001000  78.3103 323.9511 15.84118989    12"
                    ]
                },
                {
                    "noradId": "70610",
                    "tle": [
                        "1 70610C 25240W   25308.10048611 -.01699400  00000+0 -79984-2 0  3089",
                        "2 70610  53.1518 290.8132 0000753  97.7858 314.2902 15.84134567    19"
                    ]
                },
                {
                    "noradId": "70609",
                    "tle": [
                        "1 70609C 25240V   25308.10326389 -.01672100  00000+0 -78776-2 0  3084",
                        "2 70609  53.1516 290.8124 0000706  90.1162 331.5455 15.84085594    19"
                    ]
                },
                {
                    "noradId": "70608",
                    "tle": [
                        "1 70608C 25240U   25308.10395833 -.01680300  00000+0 -79144-2 0  3084",
                        "2 70608  53.1517 290.8045 0000836  86.5616 341.1033 15.84098960    18"
                    ]
                },
                {
                    "noradId": "70607",
                    "tle": [
                        "1 70607C 25240T   25308.10395833 -.01667200  00000+0 -78588-2 0  3088",
                        "2 70607  53.1518 290.8130 0000821  97.7856 325.8320 15.84069002    10"
                    ]
                },
                {
                    "noradId": "70606",
                    "tle": [
                        "1 70606C 25240S   25308.10326389 -.01653800  00000+0 -77900-2 0  3085",
                        "2 70606  53.1517 290.8213 0000838  99.4303 317.8675 15.84070215    16"
                    ]
                },
                {
                    "noradId": "70605",
                    "tle": [
                        "1 70605C 25240R   25308.10256944 -.01633300  00000+0 -76911-2 0  3087",
                        "2 70605  53.1520 290.8340 0000763  96.8677 312.0914 15.84055664    16"
                    ]
                },
                {
                    "noradId": "70604",
                    "tle": [
                        "1 70604C 25240Q   25308.10256944 -.01638400  00000+0 -77107-2 0  3080",
                        "2 70604  53.1518 290.8300 0000709  99.2912 311.6378 15.84072962    16"
                    ]
                },
                {
                    "noradId": "70603",
                    "tle": [
                        "1 70603C 25240P   25308.10326389 -.01623100  00000+0 -76470-2 0  3083",
                        "2 70603  53.1521 290.8351 0000709  92.6074 318.3166 15.84033746    17"
                    ]
                },
                {
                    "noradId": "70602",
                    "tle": [
                        "1 70602C 25240N   25308.10187500 -.01607500  00000+0 -75675-2 0  3084",
                        "2 70602  53.1523 290.8470 0000761  89.5733 311.0625 15.84034341    17"
                    ]
                },
                {
                    "noradId": "70601",
                    "tle": [
                        "1 70601C 25240M   25308.09979167 -.01595400  00000+0 -75116-2 0  3084",
                        "2 70601  53.1523 290.8620 0000908  88.3124 298.4233 15.84019144    14"
                    ]
                },
                {
                    "noradId": "70600",
                    "tle": [
                        "1 70600C 25240L   25308.09770833 -.01579100  00000+0 -74317-2 0  3083",
                        "2 70600  53.1520 290.8769 0000647  92.1782 280.4504 15.84011035    10"
                    ]
                },
                {
                    "noradId": "70599",
                    "tle": [
                        "1 70599C 25240K   25308.09770833 -.01558100  00000+0 -73297-2 0  3083",
                        "2 70599  53.1521 290.8820 0000738  98.8785 271.3713 15.83999902    11"
                    ]
                },
                {
                    "noradId": "70598",
                    "tle": [
                        "1 70598C 25240J   25308.10048611 -.01543800  00000+0 -72696-2 0  3089",
                        "2 70598  53.1523 290.8722 0000639  91.5698 292.5604 15.83963414    19"
                    ]
                },
                {
                    "noradId": "70597",
                    "tle": [
                        "1 70597C 25240H   25308.09770833 -.01527200  00000+0 -71914-2 0  3082",
                        "2 70597  53.1524 290.8910 0000540  96.2041 270.0181 15.83946216    15"
                    ]
                },
                {
                    "noradId": "70596",
                    "tle": [
                        "1 70596C 25240G   25308.09979167 -.01504800  00000+0 -70867-2 0  3089",
                        "2 70596  53.1520 290.8848 0000640  86.2278 289.5617 15.83921857    15"
                    ]
                },
                {
                    "noradId": "70595",
                    "tle": [
                        "1 70595C 25240F   25308.09909722 -.01485400  00000+0 -69935-2 0  3086",
                        "2 70595  53.1523 290.8933 0000723  97.6057 271.8983 15.83907409    12"
                    ]
                },
                {
                    "noradId": "70594",
                    "tle": [
                        "1 70594C 25240E   25308.09979167 -.01471700  00000+0 -69357-2 0  3081",
                        "2 70594  53.1527 290.8941 0000631  97.3995 274.1729 15.83872395    19"
                    ]
                },
                {
                    "noradId": "70593",
                    "tle": [
                        "1 70593C 25240D   25308.10048611 -.01454100  00000+0 -68532-2 0  3082",
                        "2 70593  53.1524 290.8949 0000718  97.7384 275.5242 15.83852398    11"
                    ]
                },
                {
                    "noradId": "70592",
                    "tle": [
                        "1 70592C 25240C   25308.10395833 -.01436000  00000+0 -67738-2 0  3088",
                        "2 70592  53.1526 290.8820 0000696  92.7104 298.2321 15.83815296    16"
                    ]
                },
                {
                    "noradId": "70591",
                    "tle": [
                        "1 70591C 25240B   25308.10743056 -.01421100  00000+0 -67087-2 0  3083",
                        "2 70591  53.1524 290.8691 0000650  90.0044 318.5545 15.83784561    17"
                    ]
                },
                {
                    "noradId": "70590",
                    "tle": [
                        "1 70590C 25240A   25308.10951389 -.01408600  00000+0 -66531-2 0  3085",
                        "2 70590  53.1524 290.8631 0000702  99.0000 319.2389 15.83760857    15"
                    ]
                }
            ]
        }
    ],
    "config": {}
}